{"type":"FeatureCollection","features":[{"type":"Feature","properties":{"name":"Avrupa"},"geometry":{"type":"Point","coordinates":[15,52]}},{"type":"Feature","properties":{"name":"Asya"},"geometry":{"type":"Point","coordinates":[90,50]}},{"type":"Feature","properties":{"name":"Afrika"},"geometry":{"type":"Point","coordinates":[20,5]}},{"type":"Feature","properties":{"name":"Kuzey Amerika"},"geometry":{"type":"Point","coordinates":[-100,48]}},{"type":"Feature","properties":{"name":"Güney Amerika"},"geometry":{"type":"Point","coordinates":[-60,-15]}},{"type":"Feature","properties":{"name":"Okyanusya"},"geometry":{"type":"Point","coordinates":[135,-25]}},{"type":"Feature","properties":{"name":"Antarktika"},"geometry":{"type":"Point","coordinates":[0,-80]}}]}