{"type":"FeatureCollection","features":[{"type":"Feature","properties":{"code":"ZW","name":"Zimbabve","minZoom":1},"geometry":{"type":"Point","coordinates":[29.925444,-18.91164]}},{"type":"Feature","properties":{"code":"ZM","name":"Zambiya","minZoom":1},"geometry":{"type":"Point","coordinates":[26.395298,-14.660804]}},{"type":"Feature","properties":{"code":"YE","name":"Yemen","minZoom":1},"geometry":{"type":"Point","coordinates":[45.874383,15.328226]}},{"type":"Feature","properties":{"code":"VN","name":"Vietnam","minZoom":0},"geometry":{"type":"Point","coordinates":[105.387292,21.715416]}},{"type":"Feature","properties":{"code":"VE","name":"Venezuela","minZoom":1},"geometry":{"type":"Point","coordinates":[-64.599381,7.182476]}},{"type":"Feature","properties":{"code":"VA","name":"Vatikan","minZoom":3},"geometry":{"type":"Point","coordinates":[12.453418,41.903323]}},{"type":"Feature","properties":{"code":"VU","name":"Vanuatu","minZoom":2},"geometry":{"type":"Point","coordinates":[166.908762,-15.37153]}},{"type":"Feature","properties":{"code":"UZ","name":"Özbekistan","minZoom":1},"geometry":{"type":"Point","coordinates":[64.005429,41.693603]}},{"type":"Feature","properties":{"code":"UY","name":"Uruguay","minZoom":1},"geometry":{"type":"Point","coordinates":[-55.966942,-32.961127]}},{"type":"Feature","properties":{"code":"FM","name":"Mikronezya","minZoom":3},"geometry":{"type":"Point","coordinates":[158.234019,6.887553]}},{"type":"Feature","properties":{"code":"MH","name":"Marshall Adaları","minZoom":3},"geometry":{"type":"Point","coordinates":[171.193609,7.082568]}},{"type":"Feature","properties":{"code":"MP","name":"Kuzey Mariana Adaları","minZoom":3},"geometry":{"type":"Point","coordinates":[145.734397,15.188188]}},{"type":"Feature","properties":{"code":"VI","name":"ABD Virjin Adaları","minZoom":3},"geometry":{"type":"Point","coordinates":[-64.779172,17.746706]}},{"type":"Feature","properties":{"code":"GU","name":"Guam","minZoom":1},"geometry":{"type":"Point","coordinates":[144.703614,13.354173]}},{"type":"Feature","properties":{"code":"AS","name":"Amerikan Samoası","minZoom":2},"geometry":{"type":"Point","coordinates":[-170.747153,-14.32671]}},{"type":"Feature","properties":{"code":"PR","name":"Porto Riko","minZoom":1},"geometry":{"type":"Point","coordinates":[-66.481065,18.234668]}},{"type":"Feature","properties":{"code":"US","name":"Amerika Birleşik Devletleri","minZoom":0},"geometry":{"type":"Point","coordinates":[-97.482602,39.538479]}},{"type":"Feature","properties":{"code":"GS","name":"Güney Georgia ve Güney Sandwich Adaları","minZoom":3},"geometry":{"type":"Point","coordinates":[-31.063179,-55.683402]}},{"type":"Feature","properties":{"code":"IO","name":"Britanya Hint Okyanusu Toprakları","minZoom":3},"geometry":{"type":"Point","coordinates":[71.348349,-6.190826]}},{"type":"Feature","properties":{"code":"SH","name":"Saint Helena","minZoom":3},"geometry":{"type":"Point","coordinates":[-5.71262,-15.950487]}},{"type":"Feature","properties":{"code":"PN","name":"Pitcairn Adaları","minZoom":3},"geometry":{"type":"Point","coordinates":[-128.317536,-24.364576]}},{"type":"Feature","properties":{"code":"AI","name":"Anguilla","minZoom":3},"geometry":{"type":"Point","coordinates":[-63.026361,18.242979]}},{"type":"Feature","properties":{"code":"FK","name":"Falkland Adaları","minZoom":3},"geometry":{"type":"Point","coordinates":[-58.738602,-51.608913]}},{"type":"Feature","properties":{"code":"KY","name":"Cayman Adaları","minZoom":3},"geometry":{"type":"Point","coordinates":[-81.24055,19.319862]}},{"type":"Feature","properties":{"code":"BM","name":"Bermuda","minZoom":2},"geometry":{"type":"Point","coordinates":[-64.763573,32.296592]}},{"type":"Feature","properties":{"code":"VG","name":"Britanya Virjin Adaları","minZoom":3},"geometry":{"type":"Point","coordinates":[-64.63661,18.426606]}},{"type":"Feature","properties":{"code":"TC","name":"Turks ve Caicos Adaları","minZoom":3},"geometry":{"type":"Point","coordinates":[-71.752704,21.81663]}},{"type":"Feature","properties":{"code":"MS","name":"Montserrat","minZoom":3},"geometry":{"type":"Point","coordinates":[-62.188252,16.73717]}},{"type":"Feature","properties":{"code":"JE","name":"Jersey","minZoom":3},"geometry":{"type":"Point","coordinates":[-2.090146,49.220808]}},{"type":"Feature","properties":{"code":"GG","name":"Guernsey","minZoom":3},"geometry":{"type":"Point","coordinates":[-2.561736,49.463533]}},{"type":"Feature","properties":{"code":"IM","name":"Man Adası","minZoom":3},"geometry":{"type":"Point","coordinates":[-4.530069,54.220833]}},{"type":"Feature","properties":{"code":"GB","name":"Birleşik Krallık","minZoom":0},"geometry":{"type":"Point","coordinates":[-2.116346,54.402739]}},{"type":"Feature","properties":{"code":"AE","name":"Birleşik Arap Emirlikleri","minZoom":2},"geometry":{"type":"Point","coordinates":[54.547256,23.466285]}},{"type":"Feature","properties":{"code":"UA","name":"Ukrayna","minZoom":1},"geometry":{"type":"Point","coordinates":[32.140865,49.724739]}},{"type":"Feature","properties":{"code":"UG","name":"Uganda","minZoom":1},"geometry":{"type":"Point","coordinates":[32.948555,1.972589]}},{"type":"Feature","properties":{"code":"TM","name":"Türkmenistan","minZoom":1},"geometry":{"type":"Point","coordinates":[58.676647,39.855246]}},{"type":"Feature","properties":{"code":"TR","name":"Türkiye","minZoom":0},"geometry":{"type":"Point","coordinates":[34.508268,39.345388]}},{"type":"Feature","properties":{"code":"TN","name":"Tunus","minZoom":1},"geometry":{"type":"Point","coordinates":[9.007881,33.687263]}},{"type":"Feature","properties":{"code":"TT","name":"Trinidad ve Tobago","minZoom":3},"geometry":{"type":"Point","coordinates":[-60.9184,10.9989]}},{"type":"Feature","properties":{"code":"TO","name":"Tonga","minZoom":2},"geometry":{"type":"Point","coordinates":[-175.163014,-21.210026]}},{"type":"Feature","properties":{"code":"TG","name":"Togo","minZoom":3},"geometry":{"type":"Point","coordinates":[1.058113,8.80722]}},{"type":"Feature","properties":{"code":"TL","name":"Doğu Timor","minZoom":2},"geometry":{"type":"Point","coordinates":[125.854679,-8.803705]}},{"type":"Feature","properties":{"code":"TH","name":"Tayland","minZoom":1},"geometry":{"type":"Point","coordinates":[101.073198,15.45974]}},{"type":"Feature","properties":{"code":"TZ","name":"Tanzanya","minZoom":1},"geometry":{"type":"Point","coordinates":[34.959183,-6.051866]}},{"type":"Feature","properties":{"code":"TJ","name":"Tacikistan","minZoom":2},"geometry":{"type":"Point","coordinates":[72.587276,38.199835]}},{"type":"Feature","properties":{"code":"TW","name":"Çin Cumhuriyeti","minZoom":3},"geometry":{"type":"Point","coordinates":[120.868204,23.652408]}},{"type":"Feature","properties":{"code":"SY","name":"Suriye","minZoom":1},"geometry":{"type":"Point","coordinates":[38.277783,35.006636]}},{"type":"Feature","properties":{"code":"CH","name":"İsviçre","minZoom":2},"geometry":{"type":"Point","coordinates":[7.463965,46.719114]}},{"type":"Feature","properties":{"code":"SE","name":"İsveç","minZoom":0},"geometry":{"type":"Point","coordinates":[19.01705,65.85918]}},{"type":"Feature","properties":{"code":"SZ","name":"Esvatini","minZoom":2},"geometry":{"type":"Point","coordinates":[31.467264,-26.533676]}},{"type":"Feature","properties":{"code":"SR","name":"Surinam","minZoom":2},"geometry":{"type":"Point","coordinates":[-55.91094,4.143987]}},{"type":"Feature","properties":{"code":"SS","name":"Güney Sudan","minZoom":1},"geometry":{"type":"Point","coordinates":[30.390151,7.230477]}},{"type":"Feature","properties":{"code":"SD","name":"Sudan","minZoom":1},"geometry":{"type":"Point","coordinates":[29.260657,16.330746]}},{"type":"Feature","properties":{"code":"LK","name":"Sri Lanka","minZoom":1},"geometry":{"type":"Point","coordinates":[80.704823,7.581097]}},{"type":"Feature","properties":{"code":"ES","name":"İspanya","minZoom":0},"geometry":{"type":"Point","coordinates":[-3.464718,40.090953]}},{"type":"Feature","properties":{"code":"KR","name":"Güney Kore","minZoom":1},"geometry":{"type":"Point","coordinates":[128.129504,36.384924]}},{"type":"Feature","properties":{"code":"ZA","name":"Güney Afrika Cumhuriyeti","minZoom":0},"geometry":{"type":"Point","coordinates":[23.665734,-29.708776]}},{"type":"Feature","properties":{"code":"SO","name":"Somali","minZoom":2},"geometry":{"type":"Point","coordinates":[45.19238,3.568925]}},{"type":"Feature","properties":{"code":"SOL","name":"Somaliland","minZoom":3},"geometry":{"type":"Point","coordinates":[46.731595,9.443889]}},{"type":"Feature","properties":{"code":"SB","name":"Solomon Adaları","minZoom":1},"geometry":{"type":"Point","coordinates":[159.170468,-8.029548]}},{"type":"Feature","properties":{"code":"SK","name":"Slovakya","minZoom":2},"geometry":{"type":"Point","coordinates":[19.049868,48.734044]}},{"type":"Feature","properties":{"code":"SI","name":"Slovenya","minZoom":3},"geometry":{"type":"Point","coordinates":[14.915312,46.06076]}},{"type":"Feature","properties":{"code":"SG","name":"Singapur","minZoom":2},"geometry":{"type":"Point","coordinates":[103.816925,1.366587]}},{"type":"Feature","properties":{"code":"SL","name":"Sierra Leone","minZoom":2},"geometry":{"type":"Point","coordinates":[-11.763677,8.617449]}},{"type":"Feature","properties":{"code":"SC","name":"Seyşeller","minZoom":3},"geometry":{"type":"Point","coordinates":[55.480175,-4.676659]}},{"type":"Feature","properties":{"code":"RS","name":"Sırbistan","minZoom":2},"geometry":{"type":"Point","coordinates":[20.787989,44.189919]}},{"type":"Feature","properties":{"code":"SN","name":"Senegal","minZoom":1},"geometry":{"type":"Point","coordinates":[-14.778586,15.138125]}},{"type":"Feature","properties":{"code":"SA","name":"Suudi Arabistan","minZoom":0},"geometry":{"type":"Point","coordinates":[44.6996,23.806908]}},{"type":"Feature","properties":{"code":"ST","name":"São Tomé ve Príncipe","minZoom":3},"geometry":{"type":"Point","coordinates":[7.021,0.9709]}},{"type":"Feature","properties":{"code":"SM","name":"San Marino","minZoom":3},"geometry":{"type":"Point","coordinates":[12.441206,43.933916]}},{"type":"Feature","properties":{"code":"WS","name":"Samoa","minZoom":1},"geometry":{"type":"Point","coordinates":[-172.438241,-13.639139]}},{"type":"Feature","properties":{"code":"VC","name":"Saint Vincent ve Grenadinler","minZoom":3},"geometry":{"type":"Point","coordinates":[-61.3359,13.0879]}},{"type":"Feature","properties":{"code":"LC","name":"Saint Lucia","minZoom":3},"geometry":{"type":"Point","coordinates":[-60.980094,13.892371]}},{"type":"Feature","properties":{"code":"KN","name":"Saint Kitts ve Nevis","minZoom":3},"geometry":{"type":"Point","coordinates":[-62.757975,17.336558]}},{"type":"Feature","properties":{"code":"RW","name":"Ruanda","minZoom":1},"geometry":{"type":"Point","coordinates":[30.103894,-1.897196]}},{"type":"Feature","properties":{"code":"RU","name":"Rusya","minZoom":0},"geometry":{"type":"Point","coordinates":[44.686469,58.249357]}},{"type":"Feature","properties":{"code":"RO","name":"Romanya","minZoom":1},"geometry":{"type":"Point","coordinates":[24.972624,45.733237]}},{"type":"Feature","properties":{"code":"QA","name":"Katar","minZoom":2},"geometry":{"type":"Point","coordinates":[51.143509,25.237383]}},{"type":"Feature","properties":{"code":"PT","name":"Portekiz","minZoom":1},"geometry":{"type":"Point","coordinates":[-8.271754,39.606675]}},{"type":"Feature","properties":{"code":"PL","name":"Polonya","minZoom":1},"geometry":{"type":"Point","coordinates":[19.490468,51.990316]}},{"type":"Feature","properties":{"code":"PH","name":"Filipinler","minZoom":1},"geometry":{"type":"Point","coordinates":[122.465,11.198]}},{"type":"Feature","properties":{"code":"PE","name":"Peru","minZoom":0},"geometry":{"type":"Point","coordinates":[-72.90016,-12.976679]}},{"type":"Feature","properties":{"code":"PY","name":"Paraguay","minZoom":1},"geometry":{"type":"Point","coordinates":[-60.146394,-21.674509]}},{"type":"Feature","properties":{"code":"PG","name":"Papua Yeni Gine","minZoom":1},"geometry":{"type":"Point","coordinates":[143.910216,-5.695285]}},{"type":"Feature","properties":{"code":"PA","name":"Panama","minZoom":2},"geometry":{"type":"Point","coordinates":[-80.352106,8.72198]}},{"type":"Feature","properties":{"code":"PW","name":"Palau","minZoom":3},"geometry":{"type":"Point","coordinates":[134.580157,7.518252]}},{"type":"Feature","properties":{"code":"PK","name":"Pakistan","minZoom":1},"geometry":{"type":"Point","coordinates":[68.545632,29.328389]}},{"type":"Feature","properties":{"code":"OM","name":"Umman","minZoom":2},"geometry":{"type":"Point","coordinates":[57.336553,22.120427]}},{"type":"Feature","properties":{"code":"NO","name":"Norveç","minZoom":1},"geometry":{"type":"Point","coordinates":[9.679975,61.357092]}},{"type":"Feature","properties":{"code":"KP","name":"Kuzey Kore","minZoom":1},"geometry":{"type":"Point","coordinates":[126.444516,39.885252]}},{"type":"Feature","properties":{"code":"NG","name":"Nijerya","minZoom":0},"geometry":{"type":"Point","coordinates":[7.50322,9.439799]}},{"type":"Feature","properties":{"code":"NE","name":"Nijer","minZoom":1},"geometry":{"type":"Point","coordinates":[9.504356,17.446195]}},{"type":"Feature","properties":{"code":"NI","name":"Nikaragua","minZoom":2},"geometry":{"type":"Point","coordinates":[-85.069347,12.670697]}},{"type":"Feature","properties":{"code":"NZ","name":"Yeni Zelanda","minZoom":0},"geometry":{"type":"Point","coordinates":[172.787,-39.759]}},{"type":"Feature","properties":{"code":"NU","name":"Niue","minZoom":2},"geometry":{"type":"Point","coordinates":[-169.862565,-19.045956]}},{"type":"Feature","properties":{"code":"CK","name":"Cook Adaları","minZoom":2},"geometry":{"type":"Point","coordinates":[-159.785675,-21.215993]}},{"type":"Feature","properties":{"code":"NL","name":"Hollanda","minZoom":2},"geometry":{"type":"Point","coordinates":[5.61144,52.422211]}},{"type":"Feature","properties":{"code":"AW","name":"Aruba","minZoom":3},"geometry":{"type":"Point","coordinates":[-69.972795,12.5174]}},{"type":"Feature","properties":{"code":"CW","name":"Curaçao","minZoom":3},"geometry":{"type":"Point","coordinates":[-68.920578,12.145039]}},{"type":"Feature","properties":{"code":"NP","name":"Nepal","minZoom":1},"geometry":{"type":"Point","coordinates":[83.639914,28.297925]}},{"type":"Feature","properties":{"code":"NR","name":"Nauru","minZoom":3},"geometry":{"type":"Point","coordinates":[166.932644,-0.520261]}},{"type":"Feature","properties":{"code":"NA","name":"Namibya","minZoom":1},"geometry":{"type":"Point","coordinates":[17.108166,-20.575298]}},{"type":"Feature","properties":{"code":"MZ","name":"Mozambik","minZoom":1},"geometry":{"type":"Point","coordinates":[37.83789,-13.94323]}},{"type":"Feature","properties":{"code":"MA","name":"Fas","minZoom":1},"geometry":{"type":"Point","coordinates":[-7.187296,31.650723]}},{"type":"Feature","properties":{"code":"EH","name":"Batı Sahra","minZoom":4},"geometry":{"type":"Point","coordinates":[-12.630304,23.967592]}},{"type":"Feature","properties":{"code":"ME","name":"Karadağ","minZoom":3},"geometry":{"type":"Point","coordinates":[19.143727,42.803101]}},{"type":"Feature","properties":{"code":"MN","name":"Moğolistan","minZoom":1},"geometry":{"type":"Point","coordinates":[104.150405,45.997488]}},{"type":"Feature","properties":{"code":"MD","name":"Moldova","minZoom":3},"geometry":{"type":"Point","coordinates":[28.487904,47.434999]}},{"type":"Feature","properties":{"code":"MC","name":"Monako","minZoom":3},"geometry":{"type":"Point","coordinates":[7.398291,43.739652]}},{"type":"Feature","properties":{"code":"MX","name":"Meksika","minZoom":0},"geometry":{"type":"Point","coordinates":[-102.289448,23.919988]}},{"type":"Feature","properties":{"code":"MU","name":"Mauritius","minZoom":2},"geometry":{"type":"Point","coordinates":[57.565848,-20.299506]}},{"type":"Feature","properties":{"code":"MR","name":"Moritanya","minZoom":1},"geometry":{"type":"Point","coordinates":[-9.740299,19.587062]}},{"type":"Feature","properties":{"code":"MT","name":"Malta","minZoom":2},"geometry":{"type":"Point","coordinates":[14.433005,35.892886]}},{"type":"Feature","properties":{"code":"ML","name":"Mali","minZoom":1},"geometry":{"type":"Point","coordinates":[-2.038455,18.692713]}},{"type":"Feature","properties":{"code":"MV","name":"Maldivler","minZoom":2},"geometry":{"type":"Point","coordinates":[73.507554,4.174441]}},{"type":"Feature","properties":{"code":"MY","name":"Malezya","minZoom":1},"geometry":{"type":"Point","coordinates":[113.83708,2.528667]}},{"type":"Feature","properties":{"code":"MW","name":"Malavi","minZoom":2},"geometry":{"type":"Point","coordinates":[33.608082,-13.386737]}},{"type":"Feature","properties":{"code":"MG","name":"Madagaskar","minZoom":1},"geometry":{"type":"Point","coordinates":[46.704241,-18.628288]}},{"type":"Feature","properties":{"code":"MK","name":"Kuzey Makedonya","minZoom":3},"geometry":{"type":"Point","coordinates":[21.555839,41.558223]}},{"type":"Feature","properties":{"code":"LU","name":"Lüksemburg","minZoom":4},"geometry":{"type":"Point","coordinates":[6.07762,49.733732]}},{"type":"Feature","properties":{"code":"LT","name":"Litvanya","minZoom":2},"geometry":{"type":"Point","coordinates":[24.089932,55.103703]}},{"type":"Feature","properties":{"code":"LI","name":"Lihtenştayn","minZoom":3},"geometry":{"type":"Point","coordinates":[9.559439,47.111405]}},{"type":"Feature","properties":{"code":"LY","name":"Libya","minZoom":1},"geometry":{"type":"Point","coordinates":[18.011015,26.638944]}},{"type":"Feature","properties":{"code":"LR","name":"Liberya","minZoom":2},"geometry":{"type":"Point","coordinates":[-9.460379,6.447177]}},{"type":"Feature","properties":{"code":"LS","name":"Lesotho","minZoom":2},"geometry":{"type":"Point","coordinates":[28.246639,-29.480158]}},{"type":"Feature","properties":{"code":"LB","name":"Lübnan","minZoom":2},"geometry":{"type":"Point","coordinates":[35.992892,34.133368]}},{"type":"Feature","properties":{"code":"LV","name":"Letonya","minZoom":2},"geometry":{"type":"Point","coordinates":[25.458723,57.066872]}},{"type":"Feature","properties":{"code":"LA","name":"Laos","minZoom":2},"geometry":{"type":"Point","coordinates":[102.533912,19.431821]}},{"type":"Feature","properties":{"code":"KG","name":"Kırgızistan","minZoom":1},"geometry":{"type":"Point","coordinates":[74.532637,41.66854]}},{"type":"Feature","properties":{"code":"KW","name":"Kuveyt","minZoom":3},"geometry":{"type":"Point","coordinates":[47.313999,29.413628]}},{"type":"Feature","properties":{"code":"XK","name":"Kosova","minZoom":3},"geometry":{"type":"Point","coordinates":[20.860719,42.593587]}},{"type":"Feature","properties":{"code":"KI","name":"Kiribati","minZoom":3},"geometry":{"type":"Point","coordinates":[-157.384577,1.820437]}},{"type":"Feature","properties":{"code":"KE","name":"Kenya","minZoom":0},"geometry":{"type":"Point","coordinates":[37.907632,0.549043]}},{"type":"Feature","properties":{"code":"KZ","name":"Kazakistan","minZoom":1},"geometry":{"type":"Point","coordinates":[68.685548,49.054149]}},{"type":"Feature","properties":{"code":"JO","name":"Ürdün","minZoom":2},"geometry":{"type":"Point","coordinates":[36.375991,30.805025]}},{"type":"Feature","properties":{"code":"JP","name":"Japonya","minZoom":0},"geometry":{"type":"Point","coordinates":[138.44217,36.142538]}},{"type":"Feature","properties":{"code":"JM","name":"Jamaika","minZoom":2},"geometry":{"type":"Point","coordinates":[-77.318767,18.137124]}},{"type":"Feature","properties":{"code":"IT","name":"İtalya","minZoom":0},"geometry":{"type":"Point","coordinates":[11.076907,44.732482]}},{"type":"Feature","properties":{"code":"IL","name":"İsrail","minZoom":1},"geometry":{"type":"Point","coordinates":[34.847915,30.911148]}},{"type":"Feature","properties":{"code":"PS","name":"Filistin","minZoom":3},"geometry":{"type":"Point","coordinates":[35.291341,32.047431]}},{"type":"Feature","properties":{"code":"IE","name":"İrlanda","minZoom":1},"geometry":{"type":"Point","coordinates":[-7.798588,53.078726]}},{"type":"Feature","properties":{"code":"IQ","name":"Irak","minZoom":1},"geometry":{"type":"Point","coordinates":[43.26181,33.09403]}},{"type":"Feature","properties":{"code":"IR","name":"İran","minZoom":1},"geometry":{"type":"Point","coordinates":[54.931495,32.166225]}},{"type":"Feature","properties":{"code":"ID","name":"Endonezya","minZoom":0},"geometry":{"type":"Point","coordinates":[101.892949,-0.954404]}},{"type":"Feature","properties":{"code":"IN","name":"Hindistan","minZoom":0},"geometry":{"type":"Point","coordinates":[79.358105,22.686852]}},{"type":"Feature","properties":{"code":"IS","name":"İzlanda","minZoom":0},"geometry":{"type":"Point","coordinates":[-18.673711,64.779286]}},{"type":"Feature","properties":{"code":"HU","name":"Macaristan","minZoom":2},"geometry":{"type":"Point","coordinates":[19.447867,47.086841]}},{"type":"Feature","properties":{"code":"HN","name":"Honduras","minZoom":3},"geometry":{"type":"Point","coordinates":[-86.887604,14.794801]}},{"type":"Feature","properties":{"code":"HT","name":"Haiti","minZoom":2},"geometry":{"type":"Point","coordinates":[-72.224051,19.263784]}},{"type":"Feature","properties":{"code":"GY","name":"Guyana","minZoom":2},"geometry":{"type":"Point","coordinates":[-58.942643,5.124317]}},{"type":"Feature","properties":{"code":"GW","name":"Gine-Bissau","minZoom":3},"geometry":{"type":"Point","coordinates":[-14.52413,12.163712]}},{"type":"Feature","properties":{"code":"GN","name":"Gine","minZoom":1},"geometry":{"type":"Point","coordinates":[-10.016402,10.618516]}},{"type":"Feature","properties":{"code":"GT","name":"Guatemala","minZoom":1},"geometry":{"type":"Point","coordinates":[-90.497134,14.982133]}},{"type":"Feature","properties":{"code":"GD","name":"Grenada","minZoom":2},"geometry":{"type":"Point","coordinates":[-61.680461,12.113156]}},{"type":"Feature","properties":{"code":"GR","name":"Yunanistan","minZoom":1},"geometry":{"type":"Point","coordinates":[21.72568,39.492763]}},{"type":"Feature","properties":{"code":"GH","name":"Gana","minZoom":1},"geometry":{"type":"Point","coordinates":[-1.036941,7.717639]}},{"type":"Feature","properties":{"code":"DE","name":"Almanya","minZoom":0},"geometry":{"type":"Point","coordinates":[9.678348,50.961733]}},{"type":"Feature","properties":{"code":"GE","name":"Gürcistan","minZoom":2},"geometry":{"type":"Point","coordinates":[43.735724,41.870087]}},{"type":"Feature","properties":{"code":"GM","name":"Gambiya","minZoom":3},"geometry":{"type":"Point","coordinates":[-14.998318,13.641721]}},{"type":"Feature","properties":{"code":"GA","name":"Gabon","minZoom":1},"geometry":{"type":"Point","coordinates":[11.835939,-0.437739]}},{"type":"Feature","properties":{"code":"FR","name":"Fransa","minZoom":0},"geometry":{"type":"Point","coordinates":[2.552275,46.696113]}},{"type":"Feature","properties":{"code":"PM","name":"Saint Pierre ve Miquelon","minZoom":3},"geometry":{"type":"Point","coordinates":[-56.332352,47.040344]}},{"type":"Feature","properties":{"code":"WF","name":"Wallis ve Futuna Adaları","minZoom":3},"geometry":{"type":"Point","coordinates":[-178.137436,-14.286415]}},{"type":"Feature","properties":{"code":"MF","name":"Saint Martin","minZoom":3},"geometry":{"type":"Point","coordinates":[-63.049399,18.081302]}},{"type":"Feature","properties":{"code":"BL","name":"Saint Barthélemy","minZoom":4},"geometry":{"type":"Point","coordinates":[-62.833193,17.901987]}},{"type":"Feature","properties":{"code":"PF","name":"Fransız Polinezyası","minZoom":2},"geometry":{"type":"Point","coordinates":[-149.46157,-17.628081]}},{"type":"Feature","properties":{"code":"NC","name":"Yeni Kaledonya","minZoom":3},"geometry":{"type":"Point","coordinates":[165.084004,-21.064697]}},{"type":"Feature","properties":{"code":"TF","name":"Fransız Güney ve Antarktika Toprakları","minZoom":2},"geometry":{"type":"Point","coordinates":[69.122136,-49.303721]}},{"type":"Feature","properties":{"code":"AX","name":"Åland","minZoom":3},"geometry":{"type":"Point","coordinates":[19.869671,60.156467]}},{"type":"Feature","properties":{"code":"FI","name":"Finlandiya","minZoom":1},"geometry":{"type":"Point","coordinates":[27.276449,63.252361]}},{"type":"Feature","properties":{"code":"FJ","name":"Fiji","minZoom":1},"geometry":{"type":"Point","coordinates":[177.975427,-17.826099]}},{"type":"Feature","properties":{"code":"ET","name":"Etiyopya","minZoom":0},"geometry":{"type":"Point","coordinates":[39.0886,8.032795]}},{"type":"Feature","properties":{"code":"EE","name":"Estonya","minZoom":1},"geometry":{"type":"Point","coordinates":[25.867126,58.724865]}},{"type":"Feature","properties":{"code":"ER","name":"Eritre","minZoom":2},"geometry":{"type":"Point","coordinates":[38.285566,15.787401]}},{"type":"Feature","properties":{"code":"GQ","name":"Ekvator Ginesi","minZoom":2},"geometry":{"type":"Point","coordinates":[8.9902,2.333]}},{"type":"Feature","properties":{"code":"SV","name":"El Salvador","minZoom":3},"geometry":{"type":"Point","coordinates":[-88.890124,13.685371]}},{"type":"Feature","properties":{"code":"EG","name":"Mısır","minZoom":0},"geometry":{"type":"Point","coordinates":[29.445837,26.186173]}},{"type":"Feature","properties":{"code":"EC","name":"Ekvador","minZoom":1},"geometry":{"type":"Point","coordinates":[-78.188375,-1.259076]}},{"type":"Feature","properties":{"code":"DO","name":"Dominik Cumhuriyeti","minZoom":3},"geometry":{"type":"Point","coordinates":[-70.653998,19.104137]}},{"type":"Feature","properties":{"code":"DM","name":"Dominika","minZoom":2},"geometry":{"type":"Point","coordinates":[-61.344958,15.458829]}},{"type":"Feature","properties":{"code":"DJ","name":"Cibuti","minZoom":2},"geometry":{"type":"Point","coordinates":[42.498825,11.976343]}},{"type":"Feature","properties":{"code":"GL","name":"Grönland","minZoom":0},"geometry":{"type":"Point","coordinates":[-39.335251,74.319387]}},{"type":"Feature","properties":{"code":"FO","name":"Faroe Adaları","minZoom":2},"geometry":{"type":"Point","coordinates":[-7.058429,62.185604]}},{"type":"Feature","properties":{"code":"DK","name":"Danimarka","minZoom":1},"geometry":{"type":"Point","coordinates":[9.018163,55.966965]}},{"type":"Feature","properties":{"code":"CZ","name":"Çek Cumhuriyeti","minZoom":2},"geometry":{"type":"Point","coordinates":[15.377555,49.882364]}},{"type":"Feature","properties":{"code":"CYN","name":"Kuzey Kıbrıs Türk Cumhuriyeti","minZoom":4},"geometry":{"type":"Point","coordinates":[33.692434,35.216071]}},{"type":"Feature","properties":{"code":"CY","name":"Kıbrıs Cumhuriyeti","minZoom":3},"geometry":{"type":"Point","coordinates":[33.084182,34.913329]}},{"type":"Feature","properties":{"code":"CU","name":"Küba","minZoom":1},"geometry":{"type":"Point","coordinates":[-77.975855,21.334024]}},{"type":"Feature","properties":{"code":"HR","name":"Hırvatistan","minZoom":2},"geometry":{"type":"Point","coordinates":[16.37241,45.805799]}},{"type":"Feature","properties":{"code":"CI","name":"Fildişi Sahili","minZoom":1},"geometry":{"type":"Point","coordinates":[-5.568618,7.49139]}},{"type":"Feature","properties":{"code":"CR","name":"Kosta Rika","minZoom":1},"geometry":{"type":"Point","coordinates":[-84.077922,10.0651]}},{"type":"Feature","properties":{"code":"CD","name":"Demokratik Kongo Cumhuriyeti","minZoom":0},"geometry":{"type":"Point","coordinates":[23.458829,-1.858167]}},{"type":"Feature","properties":{"code":"CG","name":"Kongo Cumhuriyeti","minZoom":2},"geometry":{"type":"Point","coordinates":[15.9005,0.142331]}},{"type":"Feature","properties":{"code":"KM","name":"Komorlar","minZoom":2},"geometry":{"type":"Point","coordinates":[43.318094,-11.727683]}},{"type":"Feature","properties":{"code":"CO","name":"Kolombiya","minZoom":1},"geometry":{"type":"Point","coordinates":[-73.174347,3.373111]}},{"type":"Feature","properties":{"code":"CN","name":"Çin Halk Cumhuriyeti","minZoom":0},"geometry":{"type":"Point","coordinates":[106.337289,32.498178]}},{"type":"Feature","properties":{"code":"MO","name":"Makao","minZoom":2},"geometry":{"type":"Point","coordinates":[113.556038,22.129735]}},{"type":"Feature","properties":{"code":"HK","name":"Hong Kong","minZoom":2},"geometry":{"type":"Point","coordinates":[114.097769,22.448829]}},{"type":"Feature","properties":{"code":"CL","name":"Şili","minZoom":0},"geometry":{"type":"Point","coordinates":[-72.318871,-38.151771]}},{"type":"Feature","properties":{"code":"TD","name":"Çad","minZoom":1},"geometry":{"type":"Point","coordinates":[18.645041,15.142959]}},{"type":"Feature","properties":{"code":"CF","name":"Orta Afrika Cumhuriyeti","minZoom":2},"geometry":{"type":"Point","coordinates":[20.906897,6.989681]}},{"type":"Feature","properties":{"code":"CV","name":"Yeşil Burun Adaları","minZoom":2},"geometry":{"type":"Point","coordinates":[-23.639434,15.074761]}},{"type":"Feature","properties":{"code":"CA","name":"Kanada","minZoom":0},"geometry":{"type":"Point","coordinates":[-101.9107,60.324287]}},{"type":"Feature","properties":{"code":"CM","name":"Kamerun","minZoom":1},"geometry":{"type":"Point","coordinates":[12.473488,4.585041]}},{"type":"Feature","properties":{"code":"KH","name":"Kamboçya","minZoom":1},"geometry":{"type":"Point","coordinates":[104.50487,12.647584]}},{"type":"Feature","properties":{"code":"MM","name":"Myanmar","minZoom":1},"geometry":{"type":"Point","coordinates":[95.804497,21.573855]}},{"type":"Feature","properties":{"code":"BI","name":"Burundi","minZoom":2},"geometry":{"type":"Point","coordinates":[29.917086,-3.332836]}},{"type":"Feature","properties":{"code":"BF","name":"Burkina Faso","minZoom":1},"geometry":{"type":"Point","coordinates":[-1.36388,12.673048]}},{"type":"Feature","properties":{"code":"BG","name":"Bulgaristan","minZoom":2},"geometry":{"type":"Point","coordinates":[25.15709,42.508785]}},{"type":"Feature","properties":{"code":"BN","name":"Brunei","minZoom":2},"geometry":{"type":"Point","coordinates":[114.551943,4.448298]}},{"type":"Feature","properties":{"code":"BR","name":"Brezilya","minZoom":0},"geometry":{"type":"Point","coordinates":[-49.55945,-12.098687]}},{"type":"Feature","properties":{"code":"BW","name":"Botsvana","minZoom":2},"geometry":{"type":"Point","coordinates":[24.179216,-22.102634]}},{"type":"Feature","properties":{"code":"BA","name":"Bosna-Hersek","minZoom":3},"geometry":{"type":"Point","coordinates":[18.06841,44.091051]}},{"type":"Feature","properties":{"code":"BO","name":"Bolivya","minZoom":1},"geometry":{"type":"Point","coordinates":[-64.593433,-16.666015]}},{"type":"Feature","properties":{"code":"BT","name":"Bhutan","minZoom":2},"geometry":{"type":"Point","coordinates":[90.040294,27.536685]}},{"type":"Feature","properties":{"code":"BJ","name":"Benin","minZoom":2},"geometry":{"type":"Point","coordinates":[2.352018,10.324775]}},{"type":"Feature","properties":{"code":"BZ","name":"Belize","minZoom":3},"geometry":{"type":"Point","coordinates":[-88.712962,17.202068]}},{"type":"Feature","properties":{"code":"BE","name":"Belçika","minZoom":2},"geometry":{"type":"Point","coordinates":[4.800448,50.785392]}},{"type":"Feature","properties":{"code":"BY","name":"Beyaz Rusya","minZoom":1},"geometry":{"type":"Point","coordinates":[28.417701,53.821888]}},{"type":"Feature","properties":{"code":"BB","name":"Barbados","minZoom":3},"geometry":{"type":"Point","coordinates":[-59.568966,13.163709]}},{"type":"Feature","properties":{"code":"BD","name":"Bangladeş","minZoom":1},"geometry":{"type":"Point","coordinates":[89.684963,24.214956]}},{"type":"Feature","properties":{"code":"BH","name":"Bahreyn","minZoom":2},"geometry":{"type":"Point","coordinates":[50.554816,26.055972]}},{"type":"Feature","properties":{"code":"BS","name":"Bahamalar","minZoom":2},"geometry":{"type":"Point","coordinates":[-77.146688,26.401789]}},{"type":"Feature","properties":{"code":"AZ","name":"Azerbaycan","minZoom":2},"geometry":{"type":"Point","coordinates":[47.210994,40.402387]}},{"type":"Feature","properties":{"code":"AT","name":"Avusturya","minZoom":1},"geometry":{"type":"Point","coordinates":[14.130515,47.518859]}},{"type":"Feature","properties":{"code":"AU","name":"Avustralya","minZoom":0},"geometry":{"type":"Point","coordinates":[134.04972,-24.129522]}},{"type":"Feature","properties":{"code":"HM","name":"Heard Adası ve McDonald Adaları","minZoom":3},"geometry":{"type":"Point","coordinates":[73.50521,-53.103462]}},{"type":"Feature","properties":{"code":"NF","name":"Norfolk Adası","minZoom":3},"geometry":{"type":"Point","coordinates":[167.954531,-29.033042]}},{"type":"Feature","properties":{"code":"AM","name":"Ermenistan","minZoom":3},"geometry":{"type":"Point","coordinates":[44.800564,40.459077]}},{"type":"Feature","properties":{"code":"AR","name":"Arjantin","minZoom":0},"geometry":{"type":"Point","coordinates":[-64.173331,-33.501159]}},{"type":"Feature","properties":{"code":"AG","name":"Antigua ve Barbuda","minZoom":3},"geometry":{"type":"Point","coordinates":[-61.790612,17.352249]}},{"type":"Feature","properties":{"code":"AO","name":"Angola","minZoom":1},"geometry":{"type":"Point","coordinates":[17.984249,-12.182762]}},{"type":"Feature","properties":{"code":"AD","name":"Andorra","minZoom":3},"geometry":{"type":"Point","coordinates":[1.539409,42.547643]}},{"type":"Feature","properties":{"code":"DZ","name":"Cezayir","minZoom":1},"geometry":{"type":"Point","coordinates":[2.808241,27.397406]}},{"type":"Feature","properties":{"code":"AL","name":"Arnavutluk","minZoom":3},"geometry":{"type":"Point","coordinates":[20.11384,40.654855]}},{"type":"Feature","properties":{"code":"AF","name":"Afganistan","minZoom":1},"geometry":{"type":"Point","coordinates":[66.496586,34.164262]}},{"type":"Feature","properties":{"code":"AQ","name":"Antarktika","minZoom":2},"geometry":{"type":"Point","coordinates":[35.885455,-79.843222]}},{"type":"Feature","properties":{"code":"SX","name":"Sint Maarten","minZoom":3},"geometry":{"type":"Point","coordinates":[-63.070133,18.04088]}},{"type":"Feature","properties":{"code":"TV","name":"Tuvalu","minZoom":3},"geometry":{"type":"Point","coordinates":[179.209587,-8.513717]}}]}